     3.03           N: GNSS NAV DATA    M: Mixed            RINEX VERSION / TYPE
RTKCONV 2.4.3 Emlid                     20210225 062141 UTC PGM / RUN BY / DATE 
log: D:\SHMILY\RTK\blox\COM3_210225_023125.ubx              COMMENT             
format: u-blox                                              COMMENT             
                                                            END OF HEADER       
C 6 2021  2 25  4  0  0  .122635159642E-03  .351603191007E-10  .000000000000E+00
      .100000000000E+01  .125781250000E+03  .109218835117E-08 -.144555960243E+01
      .380771234632E-05  .106158263516E-01  .182241201401E-04  .649290281296E+04
      .360000000000E+06  .111758708954E-07  .514941201048E+00 -.226311385632E-06
      .946129149780E+00 -.320031250000E+03 -.220095609264E+01 -.180114645355E-08
      .103647174464E-08  .000000000000E+00  .790000000000E+03  .000000000000E+00
      .200000000000E+01  .000000000000E+00  .870000000000E-08 -.150000000000E-08
      .360000000000E+06  .000000000000E+00
C16 2021  2 25  4  0  0 -.709642539732E-03 -.156639146098E-10  .000000000000E+00
      .100000000000E+01  .986406250000E+02  .992184185597E-09 -.113836897924E+01
      .298628583550E-05  .318235938903E-02  .189272686839E-04  .649396124649E+04
      .360000000000E+06 -.558793544769E-07  .503185135772E+00 -.237952917814E-06
      .961495508159E+00 -.335875000000E+03 -.258717154921E+01 -.174078679647E-08
      .103361448276E-08  .000000000000E+00  .790000000000E+03  .000000000000E+00
      .200000000000E+01  .000000000000E+00 -.200000000000E-08  .450000000000E-08
      .360000000000E+06  .000000000000E+00
C 7 2021  2 25  4  0  0 -.360181089491E-03 -.376338959995E-10  .000000000000E+00
      .100000000000E+01 -.983593750000E+02  .120147861784E-08 -.309056492991E+01
     -.305334106088E-05  .813341862522E-02  .236984342337E-04  .649299217606E+04
      .360000000000E+06 -.139232724905E-06  .251780946384E+01  .182539224625E-06
      .891009016639E+00 -.503328125000E+03 -.252808798771E+01 -.179864634941E-08
     -.932181686252E-09  .000000000000E+00  .790000000000E+03  .000000000000E+00
      .200000000000E+01  .000000000000E+00  .148000000000E-07  .100000000000E-08
      .360000000000E+06  .000000000000E+00
C10 2021  2 25  4  0  0 -.808704644442E-04  .603250782660E-11  .000000000000E+00
      .100000000000E+01 -.626406250000E+02  .117433463004E-08  .284020911443E+01
     -.162050127983E-05  .686196831521E-02  .231205485761E-04  .649329231262E+04
      .360000000000E+06 -.563450157642E-07  .251101360664E+01  .134110450745E-06
      .892743780008E+00 -.488031250000E+03 -.255732930776E+01 -.185650590235E-08
     -.915395272745E-09  .000000000000E+00  .790000000000E+03  .000000000000E+00
      .200000000000E+01  .000000000000E+00  .610000000000E-08  .290000000000E-08
      .360000000000E+06  .000000000000E+00
C 3 2021  2 25  4  0  0 -.434862799011E-03  .267643684992E-10  .000000000000E+00
      .000000000000E+00  .294562500000E+03 -.337335479948E-08 -.184538738592E+01
      .958470627666E-05  .852394266985E-03 -.230432488024E-04  .649329950142E+04
      .360000000000E+06 -.131782144308E-06 -.190782520791E+01 -.270083546638E-07
      .110427127733E+00  .700937500000E+03  .517041613476E+00  .440232623170E-08
     -.857178562071E-11  .000000000000E+00  .790000000000E+03  .000000000000E+00
      .200000000000E+01  .000000000000E+00  .230000000000E-08 -.810000000000E-08
      .360000000000E+06  .000000000000E+00
C 2 2021  2 25  4  0  0  .485756085254E-03 -.303632674559E-10  .000000000000E+00
      .100000000000E+01  .144937500000E+03 -.343264298336E-08 -.931906181839E+00
      .470457598567E-05  .990095664747E-03 -.228616409004E-04  .649340973663E+04
      .360000000000E+06 -.833533704281E-07 -.180904039187E+01  .111758708954E-07
      .108875706036E+00  .691640625000E+03 -.955212046793E+00  .436482466961E-08
      .496449250533E-10  .000000000000E+00  .790000000000E+03  .000000000000E+00
      .200000000000E+01  .000000000000E+00  .150000000000E-08 -.137000000000E-07
      .360000000000E+06  .000000000000E+00
C 1 2021  2 25  4  0  0 -.711203669198E-03  .350581785824E-10  .000000000000E+00
      .100000000000E+01  .607593750000E+03 -.547451374976E-08  .236751572648E+01
      .197459012270E-04  .701080774888E-03 -.169626437128E-04  .649334850121E+04
      .360000000000E+06 -.325962901115E-07 -.210242421221E+01 -.134576112032E-06
      .889254884235E-01  .511390625000E+03 -.290665297520E+01  .669170730790E-08
     -.194293807403E-09  .000000000000E+00  .790000000000E+03  .000000000000E+00
      .200000000000E+01  .000000000000E+00 -.540000000000E-08 -.100000000000E-07
      .360000000000E+06  .000000000000E+00
C 4 2021  2 25  4  0  0 -.206079217605E-03  .540477884670E-09  .000000000000E+00
      .100000000000E+01  .446625000000E+03 -.472805408529E-08  .216091551572E+01
      .144140794873E-04  .408954336308E-03 -.218879431486E-04  .649341429138E+04
      .360000000000E+06  .284053385258E-07 -.196612261333E+01 -.217463821173E-06
      .102990645539E+00  .662968750000E+03 -.256519744880E+01  .595310511358E-08
     -.628597612185E-10  .000000000000E+00  .790000000000E+03  .000000000000E+00
      .200000000000E+01  .000000000000E+00  .590000000000E-08 -.850000000000E-08
      .360000000000E+06  .000000000000E+00
C 5 2021  2 25  4  0  0 -.825302326120E-03 -.777156117238E-10  .000000000000E+00
      .100000000000E+01  .274609375000E+03 -.348800243216E-08 -.146763105858E+01
      .900356099010E-05  .831696321256E-03 -.225463882089E-04  .649351234818E+04
      .360000000000E+06 -.265426933765E-07 -.191508430690E+01  .447034835815E-07
      .107927759990E+00  .684187500000E+03 -.755524322918E+00  .448590114150E-08
     -.357157734196E-12  .000000000000E+00  .790000000000E+03  .000000000000E+00
      .200000000000E+01  .000000000000E+00  .200000000000E-09 -.920000000000E-08
      .360900000000E+06  .000000000000E+00
G18 2021  2 25  6  0  0  .348717439920E-03  .147792889038E-11  .000000000000E+00
      .193000000000E+03  .116562500000E+02  .484913055718E-08 -.205981088172E+01
      .542029738426E-06  .119198788889E-02  .471249222755E-06  .515368091202E+04
      .367200000000E+06 -.409781932831E-07 -.179730640203E+01 -.298023223877E-07
      .966732027812E+00  .377125000000E+03  .303333703171E+01 -.856821404336E-08
      .102147111980E-09  .100000000000E+01  .214600000000E+04  .000000000000E+00
      .200000000000E+01  .000000000000E+00 -.838190317154E-08  .705000000000E+03
      .361506000000E+06  .400000000000E+01
G 8 2021  2 25  6  0  0 -.115656293929E-04 -.136424205266E-11  .000000000000E+00
      .230000000000E+02  .107031250000E+03  .416160191885E-08  .267458860964E-01
      .566616654396E-05  .623360683676E-02  .910274684429E-05  .515356272125E+04
      .367200000000E+06  .651925802231E-07 -.288368884938E+01 -.391155481339E-07
      .968402804607E+00  .206343750000E+03 -.198823908785E-01 -.797176062726E-08
      .218580533328E-09  .100000000000E+01  .214600000000E+04  .000000000000E+00
      .200000000000E+01  .000000000000E+00  .512227416039E-08  .230000000000E+02
      .362796000000E+06  .400000000000E+01
C26 2021  2 25  5  0  0  .943633844145E-03 -.541344746807E-11  .000000000000E+00
      .100000000000E+01 -.197500000000E+02  .440661212451E-08  .146284285163E+01
     -.946223735809E-06  .784567906521E-03  .463845208287E-05  .528260998726E+04
      .363600000000E+06 -.325962901115E-08  .167384489511E+01 -.698491930962E-07
      .951083482776E+00  .265312500000E+03  .386294321018E+00 -.706708008654E-08
     -.324656380384E-09  .000000000000E+00  .790000000000E+03  .000000000000E+00
      .200000000000E+01  .000000000000E+00 -.490000000000E-08 -.490000000000E-08
      .363600000000E+06  .100000000000E+01
C24 2021  2 25  5  0  0 -.768155558035E-03 -.891642315537E-11  .000000000000E+00
      .100000000000E+01 -.234843750000E+02  .432303721471E-08  .524888526114E+00
     -.108918175101E-05  .710315187462E-03  .502215698361E-05  .528260642815E+04
      .363600000000E+06 -.679865479469E-07  .169875865040E+01  .228174030781E-07
      .949785609652E+00  .254875000000E+03  .584354532438E+00 -.702779273578E-08
     -.292869342041E-09  .000000000000E+00  .790000000000E+03  .000000000000E+00
      .200000000000E+01  .000000000000E+00  .700000000000E-08  .700000000000E-08
      .363600000000E+06  .100000000000E+01
C14 2021  2 25  5  0  0  .257900101133E-03  .908881858663E-10  .000000000000E+00
      .100000000000E+01 -.117781250000E+03  .346371570623E-08 -.284376713308E+01
     -.591482967138E-05  .132034556009E-02  .109062530100E-04  .528262656021E+04
      .363600000000E+06  .214204192162E-07 -.407234016920E+00 -.288709998131E-07
      .963074937423E+00  .140296875000E+03 -.640109361364E+00 -.651812864908E-08
     -.842892252703E-10  .000000000000E+00  .790000000000E+03  .000000000000E+00
      .200000000000E+01  .000000000000E+00  .690000000000E-08  .150000000000E-08
      .363600000000E+06  .000000000000E+00
C29 2021  2 25  5  0  0  .357089447789E-03  .523314724887E-11  .000000000000E+00
      .100000000000E+01  .164062500000E+03  .377122851538E-08  .625287445503E+00
      .788178294897E-05  .172907137312E-03  .549620017409E-05  .528262433434E+04
      .363600000000E+06  .381842255592E-07 -.251991524372E+01 -.251457095146E-07
      .965631892936E+00  .251796875000E+03  .708241303790E+00 -.701993526562E-08
      .439661170795E-09  .000000000000E+00  .790000000000E+03  .000000000000E+00
      .200000000000E+01  .000000000000E+00 -.200000000000E-09 -.200000000000E-09
      .363600000000E+06  .100000000000E+01
